[
    {
        "Altitude(m)": 556565.7884220228,
        "Argument of Periapsis(deg)": 0.026491964442854003,
        "Eccentricity": 0.0,
        "Inclination(deg)": 53.0,
        "Latitude(deg)": 38.17561634795665,
        "Longitude(deg)": -59.28632789282762,
        "Mean Anomaly(deg)": -230.54262852968964,
        "RAAN(deg)": 259.96057347411204,
        "Satellite Name": "Starlink Shell 1 1149",
        "Satellite Number": 1149,
        "Semi-Major Axis(m)": 6931778.249405717,
        "Time(s)": 760
    },
    {
        "Altitude(m)": 556482.4194241988,
        "Argument of Periapsis(deg)": 0.02684054292236524,
        "Eccentricity": 0.0,
        "Inclination(deg)": 53.0,
        "Latitude(deg)": 37.76831908277363,
        "Longitude(deg)": -58.723010240878544,
        "Mean Anomaly(deg)": -229.91579732613295,
        "RAAN(deg)": 259.9600547040346,
        "Satellite Name": "Starlink Shell 1 1149",
        "Satellite Number": 1149,
        "Semi-Major Axis(m)": 6931778.249405717,
        "Time(s)": 770
    },
    {
        "Altitude(m)": 556399.1207737129,
        "Argument of Periapsis(deg)": 0.027189121401876473,
        "Eccentricity": 0.0,
        "Inclination(deg)": 53.0,
        "Latitude(deg)": 37.357925209236086,
        "Longitude(deg)": -58.16630686753288,
        "Mean Anomaly(deg)": -229.28896612257623,
        "RAAN(deg)": 259.9595359339571,
        "Satellite Name": "Starlink Shell 1 1149",
        "Satellite Number": 1149,
        "Semi-Major Axis(m)": 6931778.249405717,
        "Time(s)": 780
    },
    {
        "Altitude(m)": 556315.9477390504,
        "Argument of Periapsis(deg)": 0.02753769988138771,
        "Eccentricity": 0.0,
        "Inclination(deg)": 53.0,
        "Latitude(deg)": 36.94451216552144,
        "Longitude(deg)": -57.6160969997792,
        "Mean Anomaly(deg)": -228.66213491901948,
        "RAAN(deg)": 259.95901716387965,
        "Satellite Name": "Starlink Shell 1 1149",
        "Satellite Number": 1149,
        "Semi-Major Axis(m)": 6931778.249405717,
        "Time(s)": 790
    },
    {
        "Altitude(m)": 556232.9557343549,
        "Argument of Periapsis(deg)": 0.02788627836089895,
        "Eccentricity": 0.0,
        "Inclination(deg)": 53.0,
        "Latitude(deg)": 36.5281556862427,
        "Longitude(deg)": -57.07226049672789,
        "Mean Anomaly(deg)": -228.0353037154628,
        "RAAN(deg)": 259.95849839380213,
        "Satellite Name": "Starlink Shell 1 1149",
        "Satellite Number": 1149,
        "Semi-Major Axis(m)": 6931778.249405717,
        "Time(s)": 800
    },
    {
        "Altitude(m)": 556150.2002910092,
        "Argument of Periapsis(deg)": 0.02823485684041019,
        "Eccentricity": 0.0,
        "Inclination(deg)": 53.0,
        "Latitude(deg)": 36.1089298297604,
        "Longitude(deg)": -56.534677485206274,
        "Mean Anomaly(deg)": -227.40847251190607,
        "RAAN(deg)": 259.9579796237247,
        "Satellite Name": "Starlink Shell 1 1149",
        "Satellite Number": 1149,
        "Semi-Major Axis(m)": 6931778.249405717,
        "Time(s)": 810
    },
    {
        "Altitude(m)": 556067.7370291285,
        "Argument of Periapsis(deg)": 0.028583435319921423,
        "Eccentricity": 0.0,
        "Inclination(deg)": 53.0,
        "Latitude(deg)": 35.68690700670085,
        "Longitude(deg)": -56.003227983716876,
        "Mean Anomaly(deg)": -226.78164130834935,
        "RAAN(deg)": 259.95746085364726,
        "Satellite Name": "Starlink Shell 1 1149",
        "Satellite Number": 1149,
        "Semi-Major Axis(m)": 6931778.249405717,
        "Time(s)": 820
    },
    {
        "Altitude(m)": 555985.6216289502,
        "Argument of Periapsis(deg)": 0.028932013799432665,
        "Eccentricity": 0.0,
        "Inclination(deg)": 53.0,
        "Latitude(deg)": 35.26215800950395,
        "Longitude(deg)": -55.47779302822899,
        "Mean Anomaly(deg)": -226.1548101047926,
        "RAAN(deg)": 259.95694208356974,
        "Satellite Name": "Starlink Shell 1 1149",
        "Satellite Number": 1149,
        "Semi-Major Axis(m)": 6931778.249405717,
        "Time(s)": 830
    },
    {
        "Altitude(m)": 555903.9098021638,
        "Argument of Periapsis(deg)": 0.029280592278943897,
        "Eccentricity": 0.0,
        "Inclination(deg)": 53.0,
        "Latitude(deg)": 34.83475204284314,
        "Longitude(deg)": -54.95825427465016,
        "Mean Anomaly(deg)": -225.52797890123588,
        "RAAN(deg)": 259.9564233134923,
        "Satellite Name": "Starlink Shell 1 1149",
        "Satellite Number": 1149,
        "Semi-Major Axis(m)": 6931778.249405717,
        "Time(s)": 840
    },
    {
        "Altitude(m)": 555822.6572631641,
        "Argument of Periapsis(deg)": 0.029629170758455132,
        "Eccentricity": 0.0,
        "Inclination(deg)": 53.0,
        "Latitude(deg)": 34.40475675476686,
        "Longitude(deg)": -54.44449359142583,
        "Mean Anomaly(deg)": -224.90114769767925,
        "RAAN(deg)": 259.9559045434148,
        "Satellite Name": "Starlink Shell 1 1149",
        "Satellite Number": 1149,
        "Semi-Major Axis(m)": 6931778.249405717,
        "Time(s)": 850
    },
    {
        "Altitude(m)": 555741.919700253,
        "Argument of Periapsis(deg)": 0.02997774923796637,
        "Eccentricity": 0.0,
        "Inclination(deg)": 53.0,
        "Latitude(deg)": 33.97223826842295,
        "Longitude(deg)": -53.936394323791866,
        "Mean Anomaly(deg)": -224.27431649412247,
        "RAAN(deg)": 259.95538577333735,
        "Satellite Name": "Starlink Shell 1 1149",
        "Satellite Number": 1149,
        "Semi-Major Axis(m)": 6931778.249405717,
        "Time(s)": 860
    },
    {
        "Altitude(m)": 555661.7527468387,
        "Argument of Periapsis(deg)": 0.030326327717477602,
        "Eccentricity": 0.0,
        "Inclination(deg)": 53.0,
        "Latitude(deg)": 33.53726121424472,
        "Longitude(deg)": -53.433840027805395,
        "Mean Anomaly(deg)": -223.6474852905658,
        "RAAN(deg)": 259.9548670032599,
        "Satellite Name": "Starlink Shell 1 1149",
        "Satellite Number": 1149,
        "Semi-Major Axis(m)": 6931778.249405717,
        "Time(s)": 870
    },
    {
        "Altitude(m)": 555582.2119525741,
        "Argument of Periapsis(deg)": 0.030674906196988847,
        "Eccentricity": 0.0,
        "Inclination(deg)": 53.0,
        "Latitude(deg)": 33.09988876247773,
        "Longitude(deg)": -52.93671571758127,
        "Mean Anomaly(deg)": -223.02065408700906,
        "RAAN(deg)": 259.9543482331824,
        "Satellite Name": "Starlink Shell 1 1149",
        "Satellite Number": 1149,
        "Semi-Major Axis(m)": 6931778.249405717,
        "Time(s)": 880
    },
    {
        "Altitude(m)": 555503.3527545271,
        "Argument of Periapsis(deg)": 0.031023484676500086,
        "Eccentricity": 0.0,
        "Inclination(deg)": 53.0,
        "Latitude(deg)": 32.660182655947345,
        "Longitude(deg)": -52.44490742381994,
        "Mean Anomaly(deg)": -222.39382288345237,
        "RAAN(deg)": 259.9538294631049,
        "Satellite Name": "Starlink Shell 1 1149",
        "Satellite Number": 1149,
        "Semi-Major Axis(m)": 6931778.249405717,
        "Time(s)": 890
    },
    {
        "Altitude(m)": 555425.2304483253,
        "Argument of Periapsis(deg)": 0.03137206315601132,
        "Eccentricity": 0.0,
        "Inclination(deg)": 53.0,
        "Latitude(deg)": 32.21820324296793,
        "Longitude(deg)": -51.958301745078415,
        "Mean Anomaly(deg)": -221.76699167989563,
        "RAAN(deg)": 259.95331069302745,
        "Satellite Name": "Starlink Shell 1 1149",
        "Satellite Number": 1149,
        "Semi-Major Axis(m)": 6931778.249405717,
        "Time(s)": 900
    },
    {
        "Altitude(m)": 555347.9001593641,
        "Argument of Periapsis(deg)": 0.03172064163552255,
        "Eccentricity": 0.0,
        "Inclination(deg)": 53.0,
        "Latitude(deg)": 31.77400951030721,
        "Longitude(deg)": -51.47678690512569,
        "Mean Anomaly(deg)": -221.1401604763389,
        "RAAN(deg)": 259.95279192295,
        "Satellite Name": "Starlink Shell 1 1149",
        "Satellite Number": 1149,
        "Semi-Major Axis(m)": 6931778.249405717,
        "Time(s)": 910
    },
    {
        "Altitude(m)": 555271.4168140087,
        "Argument of Periapsis(deg)": 0.0320692201150338,
        "Eccentricity": 0.0,
        "Inclination(deg)": 53.0,
        "Latitude(deg)": 31.327659116128533,
        "Longitude(deg)": -51.00025229108002,
        "Mean Anomaly(deg)": -220.5133292727822,
        "RAAN(deg)": 259.95227315287246,
        "Satellite Name": "Starlink Shell 1 1149",
        "Satellite Number": 1149,
        "Semi-Major Axis(m)": 6931778.249405717,
        "Time(s)": 920
    },
    {
        "Altitude(m)": 555195.8351108948,
        "Argument of Periapsis(deg)": 0.032417798594545036,
        "Eccentricity": 0.0,
        "Inclination(deg)": 53.0,
        "Latitude(deg)": 30.879208422839124,
        "Longitude(deg)": -50.52858798562692,
        "Mean Anomaly(deg)": -219.88649806922547,
        "RAAN(deg)": 259.95175438279506,
        "Satellite Name": "Starlink Shell 1 1149",
        "Satellite Number": 1149,
        "Semi-Major Axis(m)": 6931778.249405717,
        "Time(s)": 930
    },
    {
        "Altitude(m)": 555121.2094922494,
        "Argument of Periapsis(deg)": 0.03276637707405627,
        "Eccentricity": 0.0,
        "Inclination(deg)": 53.0,
        "Latitude(deg)": 30.428712529779535,
        "Longitude(deg)": -50.061685806594724,
        "Mean Anomaly(deg)": -219.2596668656688,
        "RAAN(deg)": 259.9512356127176,
        "Satellite Name": "Starlink Shell 1 1149",
        "Satellite Number": 1149,
        "Semi-Major Axis(m)": 6931778.249405717,
        "Time(s)": 940
    }
]